ONEWEB-0427             
1 50499U 21132AG  25090.45966057  .00000040  00000+0  68101-4 0  9997
2 50499  87.9084  63.4461 0001829  91.3715 268.7627 13.18688593164567
ONEWEB-0429             
1 50500U 21132AH  25090.44702244  .00000003  00000+0 -25635-4 0  9990
2 50500  87.9089  63.4722 0001957  79.5003 280.6350 13.18685916164523
ONEWEB-0430             
1 50501U 21132AJ  25089.98069838 -.00000048  00000+0 -15553-3 0  9990
2 50501  87.9086  63.5603 0001670  76.8675 283.2643 13.18686783164502
ONEWEB-0432             
1 50502U 21132AK  25090.16405499 -.00000122  00000+0 -34196-3 0  9997
2 50502  87.9088  63.5132 0001216 109.1098 251.0166 13.18684580164491
ONEWEB-0440             
1 50503U 21132AL  25090.45492124  .00000016  00000+0  66234-5 0  9991
2 50503  87.9089  63.4526 0002358  81.1186 279.0213 13.18687992164510
ONEWEB-0450             
1 50504U 21132AM  25089.84173231  .00000063  00000+0  12650-3 0  9991
2 50504  87.9089  63.6036 0001940  73.6139 286.5206 13.18686994163176
ONEWEB-0410             
1 51622U 22012A   25089.75003908  .00000036  00000+0  59084-4 0  9997
2 51622  87.8999  94.1648 0002570 123.8624 236.2752 13.17650984155305
ONEWEB-0411             
1 51623U 22012B   25090.52128639 -.00000011  00000+0 -68021-4 0  9990
2 51623  87.8822 124.5163 0001392  86.3779 273.7508 13.10377545152591
